From: horizons@ssd.jpl.nasa.gov (Horizons Ephemeris System)
Subject: [Horizons] SMALL BODY #C(V30@399)_T(Skiff (C/2007 H2)) (1/1)
Date: February 12, 2021 at 8:44:13 AM PST

Automated mail xmit by MAIL_REQUEST, PID= 18318 Fri Feb 12 08:44:13 2021
++++++++++++++++++++++++++++++++ (part 1 of 1)  +++++++++++++++++++++++++++++++


*******************************************************************************
Ephemeris / MAIL_REQUEST Fri Feb 12 08:44:13 2021 Pasadena, USA  / Horizons
*******************************************************************************
Target body name: Skiff (C/2007 H2)               {source: JPL#9}
Center body name: Earth (399)                     {source: DE431}
Center-site name: Heaven on Earth Observatory, Mayhill
*******************************************************************************
Start time      : A.D. 2006-Oct-23 00:00:00.0000 TDB
Stop  time      : A.D. 2007-Oct-23 00:00:00.0000 TDB
Step-size       : 10080 minutes
*******************************************************************************
Center geodetic : 254.471000,32.9035384,2.2360688 {E-lon(deg),Lat(deg),Alt(km)}
Center cylindric: 254.471000,5362.17112,3446.1964 {E-lon(deg),Dxy(km),Dz(km)}
Center pole/equ : High-precision EOP model        {East-longitude positive}
Center radii    : 6378.1 x 6378.1 x 6356.8 km     {Equator, meridian, pole}    
Small perturbers: Yes                             {source: SB431-N16}
Output units    : AU-D
Output type     : GEOMETRIC cartesian states
Output format   : 6 (LT, range, and range-rate)
EOP file        : eop.210211.p210505
EOP coverage    : DATA-BASED 1962-JAN-20 TO 2021-FEB-11. PREDICTS-> 2021-MAY-04
Reference frame : Ecliptic of J2000.0
*******************************************************************************
Initial IAU76/J2000 heliocentric ecliptic osculating elements (au, days, deg.):
 EPOCH=  2454214.5 ! 2007-Apr-24.0000000 (TDB)    RMSW= n.a.                  
  EC= .9716901175219284   QR= 1.410457315048366   TP= 2454148.5548588941      
  OM= 203.7718277548188   W= 319.3027012551166    IN= 52.19103063032247       
 Equivalent ICRF heliocentric equatorial cartesian coordinates (au, au/d):
  X=-1.476917131108475E+00  Y=-7.998555204018559E-01  Z=-1.585791320639314E-01
 VX=-3.529612866512571E-04 VY=-1.670197244917140E-02 VZ= 8.110524338935807E-03
Comet physical (GM= km^3/s^2; RAD= km):                                        
  GM= n.a.                RAD= n.a.                                           
  M1=  15.9     M2=  19.1     k1=  17.    k2=  5.      PHCOF=  .030           
*******************************************************************************
           JDTDB,            Calendar Date (TDB),                     LT,                     RG,                     RR,
**************************************************************************************************************************
$$SOE
2454031.500000000, A.D. 2006-Oct-23 00:00:00.0000,  1.109298259597564E-02,  1.920690396841944E+00, -1.225852514932959E-02,
2454038.500000000, A.D. 2006-Oct-30 00:00:00.0000,  1.061870901466277E-02,  1.838572471818430E+00, -1.117443784894627E-02,
2454045.500000000, A.D. 2006-Nov-06 00:00:00.0000,  1.018793654511051E-02,  1.763986530811629E+00, -1.013749226880685E-02,
2454052.500000000, A.D. 2006-Nov-13 00:00:00.0000,  9.797755108252575E-03,  1.696428709250554E+00, -9.192532128825284E-03,
2454059.500000000, A.D. 2006-Nov-20 00:00:00.0000,  9.443747645368905E-03,  1.635134217125621E+00, -8.369674915902917E-03,
2454066.500000000, A.D. 2006-Nov-27 00:00:00.0000,  9.120364653181119E-03,  1.579142187730170E+00, -7.695465513943627E-03,
2454073.500000000, A.D. 2006-Dec-04 00:00:00.0000,  8.821041340341037E-03,  1.527315962677638E+00, -7.194048722129855E-03,
2454080.500000000, A.D. 2006-Dec-11 00:00:00.0000,  8.538271395650355E-03,  1.478355864472854E+00, -6.886001748119712E-03,
2454087.500000000, A.D. 2006-Dec-18 00:00:00.0000,  8.264074346857565E-03,  1.430880117179266E+00, -6.773159526996482E-03,
2454094.500000000, A.D. 2006-Dec-25 00:00:00.0000,  7.990725163491899E-03,  1.383551173233614E+00, -6.842740918369553E-03,
2454101.500000000, A.D. 2007-Jan-01 00:00:00.0000,  7.711211582498724E-03,  1.335154896925089E+00, -7.075059289977777E-03,
2454108.500000000, A.D. 2007-Jan-08 00:00:00.0000,  7.419252771212086E-03,  1.284603795788857E+00, -7.453577430036240E-03,
2454115.500000000, A.D. 2007-Jan-15 00:00:00.0000,  7.109472123385886E-03,  1.230966939311401E+00, -7.947839950611586E-03,
2454122.500000000, A.D. 2007-Jan-22 00:00:00.0000,  6.778096468455932E-03,  1.173591023261368E+00, -8.510862944929391E-03,
2454129.500000000, A.D. 2007-Jan-29 00:00:00.0000,  6.423461542232117E-03,  1.112187889226889E+00, -9.089789841537981E-03,
2454136.500000000, A.D. 2007-Feb-05 00:00:00.0000,  6.045829629964816E-03,  1.046802950491297E+00, -9.642016690522353E-03,
2454143.500000000, A.D. 2007-Feb-12 00:00:00.0000,  5.647458939353422E-03,  9.778272035972034E-01, -1.010761270197261E-02,
2454150.500000000, A.D. 2007-Feb-19 00:00:00.0000,  5.233640809818297E-03,  9.061768155649027E-01, -1.039775821010646E-02,
2454157.500000000, A.D. 2007-Feb-26 00:00:00.0000,  4.813809098476144E-03,  8.334852081195679E-01, -1.040207238020802E-02,
2454164.500000000, A.D. 2007-Mar-05 00:00:00.0000,  4.401985099913359E-03,  7.621800931619779E-01, -1.000196251208866E-02,
2454171.500000000, A.D. 2007-Mar-12 00:00:00.0000,  4.018007100865945E-03,  6.956963635619233E-01, -9.024128844995863E-03,
2454178.500000000, A.D. 2007-Mar-19 00:00:00.0000,  3.689893943939352E-03,  6.388853315302832E-01, -7.245854864559183E-03,
2454185.500000000, A.D. 2007-Mar-26 00:00:00.0000,  3.454172879795169E-03,  5.980714944654574E-01, -4.498282758034832E-03,
2454192.500000000, A.D. 2007-Apr-02 00:00:00.0000,  3.349600416959595E-03,  5.799653337999513E-01, -8.609701302567525E-04,
2454199.500000000, A.D. 2007-Apr-09 00:00:00.0000,  3.404889568983202E-03,  5.895383537179490E-01,  3.257577310140082E-03,
2454206.500000000, A.D. 2007-Apr-16 00:00:00.0000,  3.627042764489566E-03,  6.280029871513072E-01,  7.250350665674683E-03,
2454213.500000000, A.D. 2007-Apr-23 00:00:00.0000,  3.999988135690112E-03,  6.925764764553839E-01,  1.063679480283792E-02,
2454220.500000000, A.D. 2007-Apr-30 00:00:00.0000,  4.494456742870796E-03,  7.781910618146269E-01,  1.325767282887263E-02,
2454227.500000000, A.D. 2007-May-07 00:00:00.0000,  5.080830700782970E-03,  8.797185653670703E-01,  1.521556636823779E-02,
2454234.500000000, A.D. 2007-May-14 00:00:00.0000,  5.735511547600509E-03,  9.930730401081539E-01,  1.667511616962076E-02,
2454241.500000000, A.D. 2007-May-21 00:00:00.0000,  6.440939486654074E-03,  1.115214101493730E+00,  1.775800272995160E-02,
2454248.500000000, A.D. 2007-May-28 00:00:00.0000,  7.183639118133757E-03,  1.243808556373573E+00,  1.855456420476243E-02,
2454255.500000000, A.D. 2007-Jun-04 00:00:00.0000,  7.953817918188666E-03,  1.377160881802567E+00,  1.915147223559030E-02,
2454262.500000000, A.D. 2007-Jun-11 00:00:00.0000,  8.744651199477553E-03,  1.514089419797896E+00,  1.960644315486626E-02,
2454269.500000000, A.D. 2007-Jun-18 00:00:00.0000,  9.550861830648674E-03,  1.653680463390087E+00,  1.993791468721627E-02,
2454276.500000000, A.D. 2007-Jun-25 00:00:00.0000,  1.036762949089576E-02,  1.795099399903768E+00,  2.016028707804061E-02,
2454283.500000000, A.D. 2007-Jul-02 00:00:00.0000,  1.119111909070875E-02,  1.937682204174445E+00,  2.030319118190827E-02,
2454290.500000000, A.D. 2007-Jul-09 00:00:00.0000,  1.201853524470958E-02,  2.080944870227652E+00,  2.038546167833667E-02,
2454297.500000000, A.D. 2007-Jul-16 00:00:00.0000,  1.284733276668109E-02,  2.224446712730729E+00,  2.040004969389848E-02,
2454304.500000000, A.D. 2007-Jul-23 00:00:00.0000,  1.367461966150736E-02,  2.367686998251637E+00,  2.034520550496674E-02,
2454311.500000000, A.D. 2007-Jul-30 00:00:00.0000,  1.449789167254346E-02,  2.510232128193465E+00,  2.023741932720979E-02,
2454318.500000000, A.D. 2007-Aug-06 00:00:00.0000,  1.531525925460404E-02,  2.651754937949176E+00,  2.008723945585474E-02,
2454325.500000000, A.D. 2007-Aug-13 00:00:00.0000,  1.612479577904593E-02,  2.791921842110050E+00,  1.988161555362127E-02,
2454332.500000000, A.D. 2007-Aug-20 00:00:00.0000,  1.692404945554215E-02,  2.930308326340523E+00,  1.961515033039049E-02,
2454339.500000000, A.D. 2007-Aug-27 00:00:00.0000,  1.771079284741493E-02,  3.066528721935222E+00,  1.930036796877719E-02,
2454346.500000000, A.D. 2007-Sep-03 00:00:00.0000,  1.848330807646395E-02,  3.200285587504171E+00,  1.894649753270239E-02,
2454353.500000000, A.D. 2007-Sep-10 00:00:00.0000,  1.923979513092422E-02,  3.331267260671512E+00,  1.853924961457038E-02,
2454360.500000000, A.D. 2007-Sep-17 00:00:00.0000,  1.997789778916606E-02,  3.459065774308677E+00,  1.807277628002114E-02,
2454367.500000000, A.D. 2007-Sep-24 00:00:00.0000,  2.069544655388246E-02,  3.583305491601351E+00,  1.755852713872695E-02,
2454374.500000000, A.D. 2007-Oct-01 00:00:00.0000,  2.139077759570372E-02,  3.703698329424490E+00,  1.700679291724718E-02,
2454381.500000000, A.D. 2007-Oct-08 00:00:00.0000,  2.206219877771514E-02,  3.819951303353562E+00,  1.640426819137218E-02,
2454388.500000000, A.D. 2007-Oct-15 00:00:00.0000,  2.270749392842657E-02,  3.931680695189960E+00,  1.574602557769119E-02,
2454395.500000000, A.D. 2007-Oct-22 00:00:00.0000,  2.332466217685297E-02,  4.038540064861955E+00,  1.504414998195074E-02,
$$EOE
**************************************************************************************************************************
Coordinate system description:

 Ecliptic at the standard reference epoch

   Reference epoch: J2000.0
   X-Y plane: adopted Earth orbital plane at the reference epoch
              Note: obliquity of 84381.448 arcseconds (IAU76) wrt ICRF equator
   X-axis   : ICRF
   Z-axis   : perpendicular to the X-Y plane in the directional (+ or -) sense
              of Earth's north pole at the reference epoch.

 Symbol meaning [1 au= 149597870.700 km, 1 day= 86400.0 s]:

   JDTDB    Julian Day Number, Barycentric Dynamical Time
     LT     One-way down-leg Newtonian light-time (day)
     RG     Range; distance from coordinate center (au)
     RR     Range-rate; radial velocity wrt coord. center (au/day)

Geometric states/elements have no aberrations applied.


Computations by ...
    Solar System Dynamics Group, Horizons On-Line Ephemeris System
    4800 Oak Grove Drive, Jet Propulsion Laboratory
    Pasadena, CA  91109   USA
    Information  : https://ssd.jpl.nasa.gov/
    Documentation: https://ssd.jpl.nasa.gov/?horizons_doc
    Connect      : https://ssd.jpl.nasa.gov/?horizons (browser)
                   telnet ssd.jpl.nasa.gov 6775       (command-line)
                   e-mail command interface available
                   Script and CGI interfaces available
    Author       : Jon.D.Giorgini@jpl.nasa.gov
*******************************************************************************
